{"type": "FeatureCollection", "features": [ {"type": "Feature", "properties": {"norad_id": 66837, "name": "STARLINK-35729", "group": "last-30-days", "lat": -60.39210751670736, "lon": 42.24648564544903, "alt_km": 400.0719362665268, "timestamp": "2025-12-18T13:51:48.380427+00:00", "meta": {"OBJECT_NAME": "STARLINK-35729", "OBJECT_ID": "2025-280S", "EPOCH": "2025-12-18T06:00:02.999808", "MEAN_MOTION": 15.58763717, "ECCENTRICITY": 0.00032826, "INCLINATION": 70.007, "RA_OF_ASC_NODE": 183.3053, "ARG_OF_PERICENTER": 271.1515, "MEAN_ANOMALY": 299.5698, "EPHEMERIS_TYPE": 0, "CLASSIFICATION_TYPE": "U", "NORAD_CAT_ID": 66837, "ELEMENT_SET_NO": 999, "REV_AT_EPOCH": 378, "BSTAR": -0.030257619, "MEAN_MOTION_DOT": -0.02050376, "MEAN_MOTION_DDOT": 0}, "tle": {"line1": "1 66837U 25280S   25352.25003472 -.02050376  00000+0 -30258-1 0  9990", "line2": "2 66837  70.0070 183.3053 0003282 271.1515 299.5698 15.58763717  3782"}}, "geometry": {"type": "Point", "coordinates": [42.24648564544903, -60.39210751670736]}}, {"type": "Feature", "properties": {"norad_id": 66838, "name": "STARLINK-35886", "group": "last-30-days", "lat": -63.034242352703025, "lon": 48.09177596815211, "alt_km": 400.0396361716794, "timestamp": "2025-12-18T13:51:48.380437+00:00", "meta": {"OBJECT_NAME": "STARLINK-35886", "OBJECT_ID": "2025-280T", "EPOCH": "2025-12-18T06:00:02.999808", "MEAN_MOTION": 15.5876318, "ECCENTRICITY": 0.00032461, "INCLINATION": 70.0069, "RA_OF_ASC_NODE": 183.3005, "ARG_OF_PERICENTER": 267.3788, "MEAN_ANOMALY": 307.1733, "EPHEMERIS_TYPE": 0, "CLASSIFICATION_TYPE": "U", "NORAD_CAT_ID": 66838, "ELEMENT_SET_NO": 999, "REV_AT_EPOCH": 378, "BSTAR": -0.030256033, "MEAN_MOTION_DOT": -0.02050211, "MEAN_MOTION_DDOT": 0}, "tle": {"line1": "1 66838U 25280T   25352.25003472 -.02050211  00000+0 -30256-1 0  9997", "line2": "2 66838  70.0069 183.3005 0003246 267.3788 307.1733 15.58763180  3787"}}, "geometry": {"type": "Point", "coordinates": [48.09177596815211, -63.034242352703025]}}, {"type": "Feature", "properties": {"norad_id": 66839, "name": "STARLINK-35717", "group": "last-30-days", "lat": -61.74289927033635, "lon": 45.04067466752714, "alt_km": 399.9320659271616, "timestamp": "2025-12-18T13:51:48.380447+00:00", "meta": {"OBJECT_NAME": "STARLINK-35717", "OBJECT_ID": "2025-280U", "EPOCH": "2025-12-18T06:00:02.999808", "MEAN_MOTION": 15.58761213, "ECCENTRICITY": 0.00034734, "INCLINATION": 70.0069, "RA_OF_ASC_NODE": 183.3028, "ARG_OF_PERICENTER": 270.181, "MEAN_ANOMALY": 302.4574, "EPHEMERIS_TYPE": 0, "CLASSIFICATION_TYPE": "U", "NORAD_CAT_ID": 66839, "ELEMENT_SET_NO": 999, "REV_AT_EPOCH": 378, "BSTAR": -0.03024542, "MEAN_MOTION_DOT": -0.02049662, "MEAN_MOTION_DDOT": 0}, "tle": {"line1": "1 66839U 25280U   25352.25003472 -.02049662  00000+0 -30245-1 0  9994", "line2": "2 66839  70.0069 183.3028 0003473 270.1810 302.4574 15.58761213  3789"}}, "geometry": {"type": "Point", "coordinates": [45.04067466752714, -61.74289927033635]}}, {"type": "Feature", "properties": {"norad_id": 66840, "name": "STARLINK-35837", "group": "last-30-days", "lat": -64.25218774554804, "lon": 51.41338676939877, "alt_km": 400.0200299636881, "timestamp": "2025-12-18T13:51:48.380457+00:00", "meta": {"OBJECT_NAME": "STARLINK-35837", "OBJECT_ID": "2025-280V", "EPOCH": "2025-12-18T06:00:02.999808", "MEAN_MOTION": 15.58761726, "ECCENTRICITY": 0.0003284, "INCLINATION": 70.0069, "RA_OF_ASC_NODE": 183.2988, "ARG_OF_PERICENTER": 267.4801, "MEAN_ANOMALY": 308.9901, "EPHEMERIS_TYPE": 0, "CLASSIFICATION_TYPE": "U", "NORAD_CAT_ID": 66840, "ELEMENT_SET_NO": 999, "REV_AT_EPOCH": 378, "BSTAR": -0.030274333, "MEAN_MOTION_DOT": -0.0205123, "MEAN_MOTION_DDOT": 0}, "tle": {"line1": "1 66840U 25280V   25352.25003472 -.02051230  00000+0 -30274-1 0  9992", "line2": "2 66840  70.0069 183.2988 0003284 267.4801 308.9901 15.58761726  3788"}}, "geometry": {"type": "Point", "coordinates": [51.41338676939877, -64.25218774554804]}}, {"type": "Feature", "properties": {"norad_id": 66841, "name": "STARLINK-35715", "group": "last-30-days", "lat": -65.38225410347292, "lon": 55.040515241686364, "alt_km": 400.00238891408753, "timestamp": "2025-12-18T13:51:48.380469+00:00", "meta": {"OBJECT_NAME": "STARLINK-35715", "OBJECT_ID": "2025-280W", "EPOCH": "2025-12-18T06:00:02.999808", "MEAN_MOTION": 15.58733954, "ECCENTRICITY": 0.00033178, "INCLINATION": 69.999, "RA_OF_ASC_NODE": 183.2948, "ARG_OF_PERICENTER": 273.6324, "MEAN_ANOMALY": 304.7626, "EPHEMERIS_TYPE": 0, "CLASSIFICATION_TYPE": "U", "NORAD_CAT_ID": 66841, "ELEMENT_SET_NO": 999, "REV_AT_EPOCH": 378, "BSTAR": -0.029319265, "MEAN_MOTION_DOT": -0.01992669, "MEAN_MOTION_DDOT": 0}, "tle": {"line1": "1 66841U 25280W   25352.25003472 -.01992669  00000+0 -29319-1 0  9990", "line2": "2 66841  69.9990 183.2948 0003317 273.6324 304.7626 15.58733954  3781"}}, "geometry": {"type": "Point", "coordinates": [55.040515241686364, -65.38225410347292]}}, {"type": "Feature", "properties": {"norad_id": 66842, "name": "STARLINK-35769", "group": "last-30-days", "lat": -66.42484638549743, "lon": 58.9771412227572, "alt_km": 400.06496240111846, "timestamp": "2025-12-18T13:51:48.380481+00:00", "meta": {"OBJECT_NAME": "STARLINK-35769", "OBJECT_ID": "2025-280X", "EPOCH": "2025-12-18T06:00:02.999808", "MEAN_MOTION": 15.58736795, "ECCENTRICITY": 0.00031738, "INCLINATION": 69.9987, "RA_OF_ASC_NODE": 183.2927, "ARG_OF_PERICENTER": 271.1854, "MEAN_ANOMALY": 309.125, "EPHEMERIS_TYPE": 0, "CLASSIFICATION_TYPE": "U", "NORAD_CAT_ID": 66842, "ELEMENT_SET_NO": 999, "REV_AT_EPOCH": 378, "BSTAR": -0.02937698, "MEAN_MOTION_DOT": -0.01996173, "MEAN_MOTION_DDOT": 0}, "tle": {"line1": "1 66842U 25280X   25352.25003472 -.01996173  00000+0 -29377-1 0  9999", "line2": "2 66842  69.9987 183.2927 0003173 271.1854 309.1250 15.58736795  3784"}}, "geometry": {"type": "Point", "coordinates": [58.9771412227572, -66.42484638549743]}}, {"type": "Feature", "properties": {"norad_id": 66843, "name": "STARLINK-35997", "group": "last-30-days", "lat": -68.17190377447218, "lon": 67.8077939581725, "alt_km": 400.05681465337784, "timestamp": "2025-12-18T13:51:48.380493+00:00", "meta": {"OBJECT_NAME": "STARLINK-35997", "OBJECT_ID": "2025-280Y", "EPOCH": "2025-12-18T06:00:02.999808", "MEAN_MOTION": 15.58737362, "ECCENTRICITY": 0.00031578, "INCLINATION": 69.9987, "RA_OF_ASC_NODE": 183.2873, "ARG_OF_PERICENTER": 269.7101, "MEAN_ANOMALY": 314.4321, "EPHEMERIS_TYPE": 0, "CLASSIFICATION_TYPE": "U", "NORAD_CAT_ID": 66843, "ELEMENT_SET_NO": 999, "REV_AT_EPOCH": 378, "BSTAR": -0.029384921, "MEAN_MOTION_DOT": -0.0199667, "MEAN_MOTION_DDOT": 0}, "tle": {"line1": "1 66843U 25280Y   25352.25003472 -.01996670  00000+0 -29385-1 0  9991", "line2": "2 66843  69.9987 183.2873 0003157 269.7101 314.4321 15.58737362  3784"}}, "geometry": {"type": "Point", "coordinates": [67.8077939581725, -68.17190377447218]}}, {"type": "Feature", "properties": {"norad_id": 66844, "name": "STARLINK-36073", "group": "last-30-days", "lat": -67.35833811889097, "lon": 63.229518055021394, "alt_km": 400.07274091102227, "timestamp": "2025-12-18T13:51:48.380504+00:00", "meta": {"OBJECT_NAME": "STARLINK-36073", "OBJECT_ID": "2025-280Z", "EPOCH": "2025-12-18T06:00:02.999808", "MEAN_MOTION": 15.58735348, "ECCENTRICITY": 0.0003163, "INCLINATION": 69.9985, "RA_OF_ASC_NODE": 183.2903, "ARG_OF_PERICENTER": 271.6869, "MEAN_ANOMALY": 310.5407, "EPHEMERIS_TYPE": 0, "CLASSIFICATION_TYPE": "U", "NORAD_CAT_ID": 66844, "ELEMENT_SET_NO": 999, "REV_AT_EPOCH": 378, "BSTAR": -0.029363457, "MEAN_MOTION_DOT": -0.01995261, "MEAN_MOTION_DDOT": 0}, "tle": {"line1": "1 66844U 25280Z   25352.25003472 -.01995261  00000+0 -29363-1 0  9993", "line2": "2 66844  69.9985 183.2903 0003163 271.6869 310.5407 15.58735348  3781"}}, "geometry": {"type": "Point", "coordinates": [63.229518055021394, -67.35833811889097]}}, {"type": "Feature", "properties": {"norad_id": 66845, "name": "STARLINK-36068", "group": "last-30-days", "lat": -69.74880767969958, "lon": 83.22025956046048, "alt_km": 400.02580813757413, "timestamp": "2025-12-18T13:51:48.380516+00:00", "meta": {"OBJECT_NAME": "STARLINK-36068", "OBJECT_ID": "2025-280AA", "EPOCH": "2025-12-18T06:00:02.999808", "MEAN_MOTION": 15.58737404, "ECCENTRICITY": 0.00031951, "INCLINATION": 69.9995, "RA_OF_ASC_NODE": 183.2806, "ARG_OF_PERICENTER": 271.4744, "MEAN_ANOMALY": 318.416, "EPHEMERIS_TYPE": 0, "CLASSIFICATION_TYPE": "U", "NORAD_CAT_ID": 66845, "ELEMENT_SET_NO": 999, "REV_AT_EPOCH": 378, "BSTAR": -0.029352169, "MEAN_MOTION_DOT": -0.01994752, "MEAN_MOTION_DDOT": 0}, "tle": {"line1": "1 66845U 25280AA  25352.25003472 -.01994752  00000+0 -29352-1 0  9996", "line2": "2 66845  69.9995 183.2806 0003195 271.4744 318.4160 15.58737404  3788"}}, "geometry": {"type": "Point", "coordinates": [83.22025956046048, -69.74880767969958]}}, {"type": "Feature", "properties": {"norad_id": 66846, "name": "STARLINK-36055", "group": "last-30-days", "lat": -68.85015155659767, "lon": 72.69305889495845, "alt_km": 400.01633955192847, "timestamp": "2025-12-18T13:51:48.380527+00:00", "meta": {"OBJECT_NAME": "STARLINK-36055", "OBJECT_ID": "2025-280AB", "EPOCH": "2025-12-18T06:00:02.999808", "MEAN_MOTION": 15.58738165, "ECCENTRICITY": 0.0003216, "INCLINATION": 69.999, "RA_OF_ASC_NODE": 183.2853, "ARG_OF_PERICENTER": 269.5081, "MEAN_ANOMALY": 316.5513, "EPHEMERIS_TYPE": 0, "CLASSIFICATION_TYPE": "U", "NORAD_CAT_ID": 66846, "ELEMENT_SET_NO": 999, "REV_AT_EPOCH": 378, "BSTAR": -0.029423595, "MEAN_MOTION_DOT": -0.01999079, "MEAN_MOTION_DDOT": 0}, "tle": {"line1": "1 66846U 25280AB  25352.25003472 -.01999079  00000+0 -29424-1 0  9994", "line2": "2 66846  69.9990 183.2853 0003216 269.5081 316.5513 15.58738165  3788"}}, "geometry": {"type": "Point", "coordinates": [72.69305889495845, -68.85015155659767]}}]}